start=new Date('2021-09-28T00:00:00.000Z').valueOf();
sats=[{"SITE":"AFETR","TLE_LINE1":"1 47763U 21017AT  21270.51146736  .00001107  00000-0  93227-4 0  9999","RA_OF_ASC_NODE":"307.7309","OBJECT_TYPE":"PAYLOAD","APOAPSIS":"547.960","PERIAPSIS":"546.523","CLASSIFICATION_TYPE":"U","GP_ID":"185635240","FILE":"3130990","CENTER_NAME":"EARTH","REV_AT_EPOCH":"3285","MEAN_ANOMALY":"275.3139","MEAN_MOTION_DDOT":"0.0000000000000","INCLINATION":"53.0558","RCS_SIZE":"LARGE","COUNTRY_CODE":"US","PERIOD":"95.593","OBJECT_ID":"2021-017AT","ELEMENT_SET_NO":"999","MEAN_MOTION":"15.06390916","NORAD_CAT_ID":"47763","REF_FRAME":"TEME","MEAN_MOTION_DOT":"0.00001107","EPHEMERIS_TYPE":"0","DECAY_DATE":null,"ECCENTRICITY":"0.00010380","TIME_SYSTEM":"UTC","OBJECT_NAME":"STARLINK-2181","EPOCH":"2021-09-27T12:16:30.779904","SEMIMAJOR_AXIS":"6925.376","BSTAR":"0.00009322700000","TLE_LINE2":"2 47763  53.0558 307.7309 0001038  84.7968 275.3139 15.06390916 32856","MEAN_ELEMENT_THEORY":"SGP4","LAUNCH_DATE":"2021-03-04","ARG_OF_PERICENTER":"84.7968"},{"GP_ID":"185635986","SITE":"AFETR","RA_OF_ASC_NODE":"318.2679","TLE_LINE1":"1 47764U 21017AU  21270.41470393  .00000295  00000-0  38703-4 0  9993","OBJECT_TYPE":"PAYLOAD","CLASSIFICATION_TYPE":"U","PERIAPSIS":"546.798","APOAPSIS":"547.625","INCLINATION":"53.0570","RCS_SIZE":"LARGE","COUNTRY_CODE":"US","PERIOD":"95.592","ELEMENT_SET_NO":"999","OBJECT_ID":"2021-017AU","FILE":"3130990","CENTER_NAME":"EARTH","MEAN_ANOMALY":"262.6652","REV_AT_EPOCH":"3275","MEAN_MOTION_DDOT":"0.0000000000000","MEAN_MOTION_DOT":"0.00000295","ECCENTRICITY":"0.00005970","DECAY_DATE":null,"TIME_SYSTEM":"UTC","EPHEMERIS_TYPE":"0","OBJECT_NAME":"STARLINK-2182","REF_FRAME":"TEME","NORAD_CAT_ID":"47764","MEAN_MOTION":"15.06400621","LAUNCH_DATE":"2021-03-04","ARG_OF_PERICENTER":"97.4405","EPOCH":"2021-09-27T09:57:10.419552","SEMIMAJOR_AXIS":"6925.347","TLE_LINE2":"2 47764  53.0570 318.2679 0000597  97.4405 262.6652 15.06400621 32757","BSTAR":"0.00003870300000","MEAN_ELEMENT_THEORY":"SGP4"},{"GP_ID":"185668504","SITE":"AFETR","TLE_LINE1":"1 47765U 21017AV  21270.78145747 -.00000733  00000-0 -30354-4 0  9999","RA_OF_ASC_NODE":"296.6126","OBJECT_TYPE":"PAYLOAD","CLASSIFICATION_TYPE":"U","PERIAPSIS":"546.815","APOAPSIS":"547.660","INCLINATION":"53.0555","RCS_SIZE":"LARGE","PERIOD":"95.593","COUNTRY_CODE":"US","ELEMENT_SET_NO":"999","OBJECT_ID":"2021-017AV","FILE":"3131463","CENTER_NAME":"EARTH","REV_AT_EPOCH":"3304","MEAN_ANOMALY":"275.7952","MEAN_MOTION_DDOT":"0.0000000000000","MEAN_MOTION_DOT":"-0.00000733","TIME_SYSTEM":"UTC","DECAY_DATE":null,"ECCENTRICITY":"0.00006100","EPHEMERIS_TYPE":"0","OBJECT_NAME":"STARLINK-2183","REF_FRAME":"TEME","MEAN_MOTION":"15.06392137","NORAD_CAT_ID":"47765","LAUNCH_DATE":"2021-03-04","ARG_OF_PERICENTER":"84.3107","EPOCH":"2021-09-27T18:45:17.925408","SEMIMAJOR_AXIS":"6925.373","BSTAR":"-0.00003035400000","TLE_LINE2":"2 47765  53.0555 296.6126 0000610  84.3107 275.7952 15.06392137 33040","MEAN_ELEMENT_THEORY":"SGP4"},{"FILE":"3131463","CENTER_NAME":"EARTH","MEAN_ANOMALY":"271.4981","REV_AT_EPOCH":"3275","MEAN_MOTION_DDOT":"0.0000000000000","INCLINATION":"53.0561","RCS_SIZE":"LARGE","PERIOD":"95.592","COUNTRY_CODE":"US","OBJECT_ID":"2021-017AW","ELEMENT_SET_NO":"999","SITE":"AFETR","TLE_LINE1":"1 47766U 21017AW  21270.83121722  .00002562  00000-0  19084-3 0  9999","OBJECT_TYPE":"PAYLOAD","RA_OF_ASC_NODE":"316.3987","PERIAPSIS":"546.208","CLASSIFICATION_TYPE":"U","APOAPSIS":"548.220","GP_ID":"185667256","EPOCH":"2021-09-27T19:56:57.167808","SEMIMAJOR_AXIS":"6925.349","TLE_LINE2":"2 47766  53.0561 316.3987 0001453  88.6175 271.4981 15.06399820 32759","BSTAR":"0.00019084000000","MEAN_ELEMENT_THEORY":"SGP4","LAUNCH_DATE":"2021-03-04","ARG_OF_PERICENTER":"88.6175","REF_FRAME":"TEME","NORAD_CAT_ID":"47766","MEAN_MOTION":"15.06399820","MEAN_MOTION_DOT":"0.00002562","TIME_SYSTEM":"UTC","DECAY_DATE":null,"ECCENTRICITY":"0.00014530","EPHEMERIS_TYPE":"0","OBJECT_NAME":"STARLINK-2184"},{"PERIAPSIS":"546.486","CLASSIFICATION_TYPE":"U","APOAPSIS":"547.896","SITE":"AFETR","TLE_LINE1":"1 47767U 21017AX  21270.79020932 -.00000132  00000-0  10013-4 0  9992","RA_OF_ASC_NODE":"301.5826","OBJECT_TYPE":"PAYLOAD","GP_ID":"185668006","MEAN_ANOMALY":"264.8495","REV_AT_EPOCH":"3302","MEAN_MOTION_DDOT":"0.0000000000000","FILE":"3131463","CENTER_NAME":"EARTH","PERIOD":"95.592","COUNTRY_CODE":"US","ELEMENT_SET_NO":"999","OBJECT_ID":"2021-017AX","INCLINATION":"53.0555","RCS_SIZE":"LARGE","REF_FRAME":"TEME","MEAN_MOTION":"15.06407427","NORAD_CAT_ID":"47767","DECAY_DATE":null,"TIME_SYSTEM":"UTC","ECCENTRICITY":"0.00010180","EPHEMERIS_TYPE":"0","OBJECT_NAME":"STARLINK-2185","MEAN_MOTION_DOT":"-0.00000132","MEAN_ELEMENT_THEORY":"SGP4","TLE_LINE2":"2 47767  53.0555 301.5826 0001018  95.2610 264.8495 15.06407427 33026","BSTAR":"0.00001001300000","EPOCH":"2021-09-27T18:57:54.085248","SEMIMAJOR_AXIS":"6925.326","LAUNCH_DATE":"2021-03-04","ARG_OF_PERICENTER":"95.2610"},{"MEAN_ANOMALY":"273.8825","REV_AT_EPOCH":"3279","MEAN_MOTION_DDOT":"0.0000000000000","FILE":"3131463","CENTER_NAME":"EARTH","COUNTRY_CODE":"US","PERIOD":"95.593","OBJECT_ID":"2021-017AY","ELEMENT_SET_NO":"999","INCLINATION":"53.0562","RCS_SIZE":"LARGE","CLASSIFICATION_TYPE":"U","PERIAPSIS":"546.625","APOAPSIS":"547.898","SITE":"AFETR","OBJECT_TYPE":"PAYLOAD","TLE_LINE1":"1 47768U 21017AY  21270.85976145  .00002322  00000-0  17478-3 0  9999","RA_OF_ASC_NODE":"316.2825","GP_ID":"185668258","TLE_LINE2":"2 47768  53.0562 316.2825 0000919  86.2269 273.8825 15.06384497 32797","MEAN_ELEMENT_THEORY":"SGP4","BSTAR":"0.00017478000000","EPOCH":"2021-09-27T20:38:03.389280","SEMIMAJOR_AXIS":"6925.396","LAUNCH_DATE":"2021-03-04","ARG_OF_PERICENTER":"86.2269","REF_FRAME":"TEME","NORAD_CAT_ID":"47768","MEAN_MOTION":"15.06384497","ECCENTRICITY":"0.00009190","DECAY_DATE":null,"TIME_SYSTEM":"UTC","EPHEMERIS_TYPE":"0","OBJECT_NAME":"STARLINK-2189","MEAN_MOTION_DOT":"0.00002322"},{"SITE":"AFETR","OBJECT_TYPE":"PAYLOAD","TLE_LINE1":"1 47769U 21017AZ  21270.77362676 -.00000315  00000-0 -23021-5 0  9994","RA_OF_ASC_NODE":"281.6711","APOAPSIS":"547.614","PERIAPSIS":"546.855","CLASSIFICATION_TYPE":"U","GP_ID":"185669004","FILE":"3131463","CENTER_NAME":"EARTH","MEAN_ANOMALY":"297.9329","REV_AT_EPOCH":"3329","MEAN_MOTION_DDOT":"0.0000000000000","INCLINATION":"53.0481","RCS_SIZE":"LARGE","COUNTRY_CODE":"US","PERIOD":"95.593","ELEMENT_SET_NO":"999","OBJECT_ID":"2021-017AZ","NORAD_CAT_ID":"47769","MEAN_MOTION":"15.06393256","REF_FRAME":"TEME","MEAN_MOTION_DOT":"-0.00000315","EPHEMERIS_TYPE":"0","TIME_SYSTEM":"UTC","DECAY_DATE":null,"ECCENTRICITY":"0.00005480","OBJECT_NAME":"STARLINK-2192","EPOCH":"2021-09-27T18:34:01.352064","SEMIMAJOR_AXIS":"6925.369","TLE_LINE2":"2 47769  53.0481 281.6711 0000548  62.1715 297.9329 15.06393256 33299","BSTAR":"-0.00000230210000","MEAN_ELEMENT_THEORY":"SGP4","LAUNCH_DATE":"2021-03-04","ARG_OF_PERICENTER":"62.1715"},{"OBJECT_NAME":"STARLINK-2193","TIME_SYSTEM":"UTC","DECAY_DATE":null,"ECCENTRICITY":"0.00006940","EPHEMERIS_TYPE":"0","MEAN_MOTION_DOT":"-0.00001318","REF_FRAME":"TEME","NORAD_CAT_ID":"47770","MEAN_MOTION":"15.06362602","ARG_OF_PERICENTER":"84.8108","LAUNCH_DATE":"2021-03-04","MEAN_ELEMENT_THEORY":"SGP4","TLE_LINE2":"2 47770  53.0551 296.6366 0000694  84.8108 275.2960 15.06362602 33066","BSTAR":"-0.00006969000000","SEMIMAJOR_AXIS":"6925.463","EPOCH":"2021-09-27T18:38:41.453088","GP_ID":"185667756","PERIAPSIS":"546.848","CLASSIFICATION_TYPE":"U","APOAPSIS":"547.809","TLE_LINE1":"1 47770U 21017BA  21270.77686867 -.00001318  00000-0 -69690-4 0  9992","OBJECT_TYPE":"PAYLOAD","RA_OF_ASC_NODE":"296.6366","SITE":"AFETR","OBJECT_ID":"2021-017BA","ELEMENT_SET_NO":"999","COUNTRY_CODE":"US","PERIOD":"95.595","RCS_SIZE":"LARGE","INCLINATION":"53.0551","MEAN_MOTION_DDOT":"0.0000000000000","MEAN_ANOMALY":"275.2960","REV_AT_EPOCH":"3306","CENTER_NAME":"EARTH","FILE":"3131463"},{"LAUNCH_DATE":"2021-03-04","ARG_OF_PERICENTER":"82.5991","MEAN_ELEMENT_THEORY":"SGP4","TLE_LINE2":"2 47771  53.0564 296.5618 0000940  82.5991 277.5105 15.06424979 33072","BSTAR":"0.00022396000000","EPOCH":"2021-09-27T19:01:10.157088","SEMIMAJOR_AXIS":"6925.272","EPHEMERIS_TYPE":"0","TIME_SYSTEM":"UTC","DECAY_DATE":null,"ECCENTRICITY":"0.00009400","OBJECT_NAME":"STARLINK-2194","MEAN_MOTION_DOT":"0.00003058","NORAD_CAT_ID":"47771","MEAN_MOTION":"15.06424979","REF_FRAME":"TEME","COUNTRY_CODE":"US","PERIOD":"95.591","ELEMENT_SET_NO":"999","OBJECT_ID":"2021-017BB","INCLINATION":"53.0564","RCS_SIZE":"LARGE","REV_AT_EPOCH":"3307","MEAN_ANOMALY":"277.5105","MEAN_MOTION_DDOT":"0.0000000000000","FILE":"3131463","CENTER_NAME":"EARTH","GP_ID":"185667507","APOAPSIS":"547.788","CLASSIFICATION_TYPE":"U","PERIAPSIS":"546.486","SITE":"AFETR","TLE_LINE1":"1 47771U 21017BB  21270.79247867  .00003058  00000-0  22396-3 0  9990","OBJECT_TYPE":"PAYLOAD","RA_OF_ASC_NODE":"296.5618"},{"REF_FRAME":"TEME","NORAD_CAT_ID":"47772","MEAN_MOTION":"15.06398975","OBJECT_NAME":"STARLINK-2195","TIME_SYSTEM":"UTC","DECAY_DATE":null,"ECCENTRICITY":"0.00004880","EPHEMERIS_TYPE":"0","MEAN_MOTION_DOT":"0.00001383","BSTAR":"0.00011171000000","TLE_LINE2":"2 47772  53.0553 311.3164 0000488  77.9064 282.1980 15.06398975 32842","MEAN_ELEMENT_THEORY":"SGP4","SEMIMAJOR_AXIS":"6925.352","EPOCH":"2021-09-27T20:21:30.093408","ARG_OF_PERICENTER":"77.9064","LAUNCH_DATE":"2021-03-04","PERIAPSIS":"546.879","CLASSIFICATION_TYPE":"U","APOAPSIS":"547.555","TLE_LINE1":"1 47772U 21017BC  21270.84826497  .00001383  00000-0  11171-3 0  9997","OBJECT_TYPE":"PAYLOAD","RA_OF_ASC_NODE":"311.3164","SITE":"AFETR","GP_ID":"185668758","MEAN_MOTION_DDOT":"0.0000000000000","REV_AT_EPOCH":"3284","MEAN_ANOMALY":"282.1980","CENTER_NAME":"EARTH","FILE":"3131463","ELEMENT_SET_NO":"999","OBJECT_ID":"2021-017BC","PERIOD":"95.592","COUNTRY_CODE":"US","RCS_SIZE":"LARGE","INCLINATION":"53.0553"}];
